[{"OBJECT_NAME":"ICEYE-X71","OBJECT_ID":"2026-067CG","EPOCH":"2026-04-23T15:42:19.231200","MEAN_MOTION":14.9140266,"ECCENTRICITY":0.00019288,"INCLINATION":97.7575,"RA_OF_ASC_NODE":72.7565,"ARG_OF_PERICENTER":158.5216,"MEAN_ANOMALY":201.6084,"EPHEMERIS_TYPE":0,"CLASSIFICATION_TYPE":"U","NORAD_CAT_ID":68494,"ELEMENT_SET_NO":999,"REV_AT_EPOCH":359,"BSTAR":0.00018421451,"MEAN_MOTION_DOT":1.784e-5,"MEAN_MOTION_DDOT":0},{"OBJECT_NAME":"GRAVITAS","OBJECT_ID":"2026-067CH","EPOCH":"2026-04-20T22:12:32.439744","MEAN_MOTION":14.84194594,"ECCENTRICITY":0.00016376,"INCLINATION":97.76,"RA_OF_ASC_NODE":70.0281,"ARG_OF_PERICENTER":178.9108,"MEAN_ANOMALY":181.211,"EPHEMERIS_TYPE":0,"CLASSIFICATION_TYPE":"U","NORAD_CAT_ID":68495,"ELEMENT_SET_NO":999,"REV_AT_EPOCH":318,"BSTAR":4.4401613e-5,"MEAN_MOTION_DOT":3.2e-6,"MEAN_MOTION_DDOT":0},{"OBJECT_NAME":"ICEYE-X73","OBJECT_ID":"2026-067CJ","EPOCH":"2026-04-23T15:29:37.073472","MEAN_MOTION":14.91947799,"ECCENTRICITY":0.00031862,"INCLINATION":97.7572,"RA_OF_ASC_NODE":72.7672,"ARG_OF_PERICENTER":107.3487,"MEAN_ANOMALY":252.808,"EPHEMERIS_TYPE":0,"CLASSIFICATION_TYPE":"U","NORAD_CAT_ID":68496,"ELEMENT_SET_NO":999,"REV_AT_EPOCH":359,"BSTAR":0.00015970373,"MEAN_MOTION_DOT":1.561e-5,"MEAN_MOTION_DDOT":0},{"OBJECT_NAME":"ICEYE-X75","OBJECT_ID":"2026-067CK","EPOCH":"2026-04-23T15:30:07.504416","MEAN_MOTION":14.91932084,"ECCENTRICITY":0.00030153,"INCLINATION":97.7554,"RA_OF_ASC_NODE":72.7622,"ARG_OF_PERICENTER":103.3716,"MEAN_ANOMALY":256.7839,"EPHEMERIS_TYPE":0,"CLASSIFICATION_TYPE":"U","NORAD_CAT_ID":68497,"ELEMENT_SET_NO":999,"REV_AT_EPOCH":359,"BSTAR":0.00019786458,"MEAN_MOTION_DOT":1.946e-5,"MEAN_MOTION_DDOT":0},{"OBJECT_NAME":"TRANSPORTER-16 OBJECT CL","OBJECT_ID":"2026-067CL","EPOCH":"2026-04-23T15:46:03.378720","MEAN_MOTION":14.91251542,"ECCENTRICITY":0.00010866,"INCLINATION":97.751,"RA_OF_ASC_NODE":72.7377,"ARG_OF_PERICENTER":208.2506,"MEAN_ANOMALY":151.8653,"EPHEMERIS_TYPE":0,"CLASSIFICATION_TYPE":"U","NORAD_CAT_ID":68498,"ELEMENT_SET_NO":999,"REV_AT_EPOCH":359,"BSTAR":0.00018434948,"MEAN_MOTION_DOT":1.779e-5,"MEAN_MOTION_DDOT":0},{"OBJECT_NAME":"TRANSPORTER-16 OBJECT CM","OBJECT_ID":"2026-067CM","EPOCH":"2026-04-23T15:42:02.666592","MEAN_MOTION":14.91397728,"ECCENTRICITY":0.00011589,"INCLINATION":97.7546,"RA_OF_ASC_NODE":72.7494,"ARG_OF_PERICENTER":144.742,"MEAN_ANOMALY":215.3875,"EPHEMERIS_TYPE":0,"CLASSIFICATION_TYPE":"U","NORAD_CAT_ID":68499,"ELEMENT_SET_NO":999,"REV_AT_EPOCH":359,"BSTAR":0.00011213444,"MEAN_MOTION_DOT":1.064e-5,"MEAN_MOTION_DDOT":0},{"OBJECT_NAME":"ICEYE-X74","OBJECT_ID":"2026-067CN","EPOCH":"2026-04-23T15:41:18.397824","MEAN_MOTION":14.91447229,"ECCENTRICITY":0.00019284,"INCLINATION":97.7582,"RA_OF_ASC_NODE":72.7592,"ARG_OF_PERICENTER":152.271,"MEAN_ANOMALY":207.8612,"EPHEMERIS_TYPE":0,"CLASSIFICATION_TYPE":"U","NORAD_CAT_ID":68500,"ELEMENT_SET_NO":999,"REV_AT_EPOCH":359,"BSTAR":0.00015851625,"MEAN_MOTION_DOT":1.529e-5,"MEAN_MOTION_DDOT":0},{"OBJECT_NAME":"TRANSPORTER-16 OBJECT CP","OBJECT_ID":"2026-067CP","EPOCH":"2026-04-23T15:46:17.554368","MEAN_MOTION":14.91251878,"ECCENTRICITY":0.00027705,"INCLINATION":97.7594,"RA_OF_ASC_NODE":72.757,"ARG_OF_PERICENTER":178.9764,"MEAN_ANOMALY":181.1461,"EPHEMERIS_TYPE":0,"CLASSIFICATION_TYPE":"U","NORAD_CAT_ID":68501,"ELEMENT_SET_NO":999,"REV_AT_EPOCH":359,"BSTAR":0.00014634988,"MEAN_MOTION_DOT":1.4e-5,"MEAN_MOTION_DDOT":0},{"OBJECT_NAME":"ICEYE-X76","OBJECT_ID":"2026-067CQ","EPOCH":"2026-04-23T15:39:43.843392","MEAN_MOTION":14.91516249,"ECCENTRICITY":0.00021232,"INCLINATION":97.7587,"RA_OF_ASC_NODE":72.7622,"ARG_OF_PERICENTER":146.0087,"MEAN_ANOMALY":214.1268,"EPHEMERIS_TYPE":0,"CLASSIFICATION_TYPE":"U","NORAD_CAT_ID":68502,"ELEMENT_SET_NO":999,"REV_AT_EPOCH":359,"BSTAR":0.00018183863,"MEAN_MOTION_DOT":1.765e-5,"MEAN_MOTION_DDOT":0},{"OBJECT_NAME":"FLYLAB2","OBJECT_ID":"2026-067CR","EPOCH":"2026-04-23T15:58:00.121152","MEAN_MOTION":14.90541157,"ECCENTRICITY":0.00037419,"INCLINATION":97.7534,"RA_OF_ASC_NODE":72.7328,"ARG_OF_PERICENTER":232.6497,"MEAN_ANOMALY":127.438,"EPHEMERIS_TYPE":0,"CLASSIFICATION_TYPE":"U","NORAD_CAT_ID":68503,"ELEMENT_SET_NO":999,"REV_AT_EPOCH":359,"BSTAR":0.00014542921,"MEAN_MOTION_DOT":1.366e-5,"MEAN_MOTION_DDOT":0},{"OBJECT_NAME":"ICEYE-X72","OBJECT_ID":"2026-067CS","EPOCH":"2026-04-23T15:33:46.297728","MEAN_MOTION":14.91774955,"ECCENTRICITY":0.00028528,"INCLINATION":97.7587,"RA_OF_ASC_NODE":72.7677,"ARG_OF_PERICENTER":123.0641,"MEAN_ANOMALY":237.0852,"EPHEMERIS_TYPE":0,"CLASSIFICATION_TYPE":"U","NORAD_CAT_ID":68504,"ELEMENT_SET_NO":999,"REV_AT_EPOCH":359,"BSTAR":0.00018534813,"MEAN_MOTION_DOT":1.812e-5,"MEAN_MOTION_DDOT":0},{"OBJECT_NAME":"GEMS2-AMETHYST","OBJECT_ID":"2026-067CT","EPOCH":"2026-04-23T15:59:56.553792","MEAN_MOTION":14.90687448,"ECCENTRICITY":0.00042352,"INCLINATION":97.757,"RA_OF_ASC_NODE":72.7396,"ARG_OF_PERICENTER":211.3275,"MEAN_ANOMALY":148.7691,"EPHEMERIS_TYPE":0,"CLASSIFICATION_TYPE":"U","NORAD_CAT_ID":68505,"ELEMENT_SET_NO":999,"REV_AT_EPOCH":359,"BSTAR":0.00032086129,"MEAN_MOTION_DOT":3.093e-5,"MEAN_MOTION_DDOT":0},{"OBJECT_NAME":"STARLINK-37262","OBJECT_ID":"2026-068A","EPOCH":"2026-04-22T14:31:42.059424","MEAN_MOTION":15.80986147,"ECCENTRICITY":0.0002247,"INCLINATION":53.1573,"RA_OF_ASC_NODE":289.2413,"ARG_OF_PERICENTER":170.5237,"MEAN_ANOMALY":189.5828,"EPHEMERIS_TYPE":0,"CLASSIFICATION_TYPE":"U","NORAD_CAT_ID":68508,"ELEMENT_SET_NO":999,"REV_AT_EPOCH":361,"BSTAR":0.0014324437,"MEAN_MOTION_DOT":0.00293365,"MEAN_MOTION_DDOT":0},{"OBJECT_NAME":"STARLINK-36292","OBJECT_ID":"2026-068B","EPOCH":"2026-04-22T14:30:36.901728","MEAN_MOTION":15.80917497,"ECCENTRICITY":9.8e-5,"INCLINATION":53.1571,"RA_OF_ASC_NODE":289.2358,"ARG_OF_PERICENTER":154.1143,"MEAN_ANOMALY":205.9929,"EPHEMERIS_TYPE":0,"CLASSIFICATION_TYPE":"U","NORAD_CAT_ID":68509,"ELEMENT_SET_NO":999,"REV_AT_EPOCH":361,"BSTAR":0.0009376893,"MEAN_MOTION_DOT":0.0018886,"MEAN_MOTION_DDOT":0},{"OBJECT_NAME":"STARLINK-37260","OBJECT_ID":"2026-068C","EPOCH":"2026-04-22T14:29:32.582112","MEAN_MOTION":15.80909843,"ECCENTRICITY":9.399e-5,"INCLINATION":53.157,"RA_OF_ASC_NODE":289.2301,"ARG_OF_PERICENTER":110.4505,"MEAN_ANOMALY":249.6619,"EPHEMERIS_TYPE":0,"CLASSIFICATION_TYPE":"U","NORAD_CAT_ID":68510,"ELEMENT_SET_NO":999,"REV_AT_EPOCH":361,"BSTAR":0.00073640189,"MEAN_MOTION_DOT":0.00147399,"MEAN_MOTION_DDOT":0},{"OBJECT_NAME":"STARLINK-37280","OBJECT_ID":"2026-068D","EPOCH":"2026-04-22T11:25:16.665312","MEAN_MOTION":15.81154981,"ECCENTRICITY":0.00029357,"INCLINATION":53.1574,"RA_OF_ASC_NODE":289.8543,"ARG_OF_PERICENTER":322.6977,"MEAN_ANOMALY":37.3842,"EPHEMERIS_TYPE":0,"CLASSIFICATION_TYPE":"U","NORAD_CAT_ID":68511,"ELEMENT_SET_NO":999,"REV_AT_EPOCH":359,"BSTAR":-0.0025866857,"MEAN_MOTION_DOT":-0.00489999,"MEAN_MOTION_DDOT":0}]
