ICEYE-X71               
1 68494U 26067CG  26113.65438925  .00001784  00000+0  18421-3 0  9995
2 68494  97.7575  72.7565 0001928 158.5216 201.6084 14.91402660  3594
GRAVITAS                
1 68495U 26067CH  26110.92537546  .00000320  00000+0  44402-4 0  9996
2 68495  97.7600  70.0281 0001637 178.9108 181.2110 14.84194594  3187
ICEYE-X73               
1 68496U 26067CJ  26113.64556798  .00001561  00000+0  15970-3 0  9994
2 68496  97.7572  72.7672 0003186 107.3487 252.8080 14.91947799  3593
ICEYE-X75               
1 68497U 26067CK  26113.64592019  .00001946  00000+0  19786-3 0  9997
2 68497  97.7554  72.7622 0003015 103.3716 256.7839 14.91932084  3597
TRANSPORTER-16 OBJECT CL
1 68498U 26067CL  26113.65698355  .00001779  00000+0  18435-3 0  9993
2 68498  97.7510  72.7377 0001086 208.2506 151.8653 14.91251542  3597
TRANSPORTER-16 OBJECT CM
1 68499U 26067CM  26113.65419753  .00001064  00000+0  11213-3 0  9991
2 68499  97.7546  72.7494 0001158 144.7420 215.3875 14.91397728  3595
ICEYE-X74               
1 68500U 26067CN  26113.65368516  .00001529  00000+0  15852-3 0  9993
2 68500  97.7582  72.7592 0001928 152.2710 207.8612 14.91447229  3595
TRANSPORTER-16 OBJECT CP
1 68501U 26067CP  26113.65714762  .00001400  00000+0  14635-3 0  9998
2 68501  97.7594  72.7570 0002770 178.9764 181.1461 14.91251878  3594
ICEYE-X76               
1 68502U 26067CQ  26113.65259078  .00001765  00000+0  18184-3 0  9990
2 68502  97.7587  72.7622 0002123 146.0087 214.1268 14.91516249  3599
FLYLAB2                 
1 68503U 26067CR  26113.66527918  .00001366  00000+0  14543-3 0  9995
2 68503  97.7534  72.7328 0003741 232.6497 127.4380 14.90541157  3595
ICEYE-X72               
1 68504U 26067CS  26113.64845252  .00001812  00000+0  18535-3 0  9999
2 68504  97.7587  72.7677 0002852 123.0641 237.0852 14.91774955  3594
GEMS2-AMETHYST          
1 68505U 26067CT  26113.66662678  .00003093  00000+0  32086-3 0  9991
2 68505  97.7570  72.7396 0004235 211.3275 148.7691 14.90687448  3594
STARLINK-37262          
1 68508U 26068A   26112.60534791  .00293365  00000+0  14324-2 0  9999
2 68508  53.1573 289.2413 0002247 170.5237 189.5828 15.80986147  3612
STARLINK-36292          
1 68509U 26068B   26112.60459377  .00188860  00000+0  93769-3 0  9990
2 68509  53.1571 289.2358 0000980 154.1143 205.9929 15.80917497  3612
STARLINK-37260          
1 68510U 26068C   26112.60384933  .00147399  00000+0  73640-3 0  9995
2 68510  53.1570 289.2301 0000939 110.4505 249.6619 15.80909843  3619
STARLINK-37280          
1 68511U 26068D   26112.47588733 -.00489999  00000+0 -25867-2 0  9999
2 68511  53.1574 289.8543 0002935 322.6977  37.3842 15.81154981  3599
